QZS-1R                  
1 49336U 21096A   24298.29944162 -.00000229  00000+0  00000+0 0  9997
2 49336  36.2144  88.5720 0747024 270.3688 277.9412  1.00278179 10979
